COSMOS 2433 (720)       
1 32275U 07052A   22058.62813833 -.00000078  00000+0  00000+0 0  9998
2 32275  66.0846   8.3135 0004123 276.5013 329.9251  2.13104144111627
COSMOS 2432 (719)       
1 32276U 07052B   22058.13627249 -.00000075  00000+0  00000+0 0  9996
2 32276  66.0973   8.4287 0011996 325.1435 212.5366  2.13103512111614
COSMOS 2434 (721)       
1 32393U 07065A   22058.45049446  .00000079  00000+0  00000+0 0  9995
2 32393  64.4044 245.1825 0005075  74.5496 284.7616  2.13103189110322
COSMOS 2436 (723)       
1 32395U 07065C   22056.20886374  .00000103  00000+0  00000+0 0  9995
2 32395  64.4138 245.3163 0016614   8.1941 207.3391  2.13102948110215
COSMOS 2456 (730)       
1 36111U 09070A   22058.62124774  .00000008  00000+0  00000+0 0  9994
2 36111  64.3244 124.8260 0004092 303.5148 353.8904  2.13099119 94997
COSMOS 2457 (733)       
1 36112U 09070B   22057.95235214  .00000003  00000+0  00000+0 0  9997
2 36112  64.3082 124.7280 0005214 175.3770  95.2985  2.13101334 94980
COSMOS 2461 (735)       
1 36401U 10007B   22058.35565678 -.00000077  00000+0  00000+0 0  9997
2 36401  65.9701   7.1751 0021402   1.2270 253.6921  2.13103837 93341
COSMOS 2460 (732)       
1 36402U 10007C   22057.41605115 -.00000072  00000+0  00000+0 0  9990
2 36402  65.9575   7.1605 0002314 312.1984 249.2558  2.13106466 93322
COSMOS 2464 (736)       
1 37139U 10041C   22057.68365593  .00000089  00000+0  00000+0 0  9995
2 37139  64.0048 244.3388 0030317  14.2462 335.8237  2.13100868 89380
COSMOS 2476 (744)       
1 37867U 11064A   22057.44523139 -.00000002  00000+0  00000+0 0  9991
2 37867  64.6153 126.1793 0021947 236.6474 143.1172  2.13101873 80320
COSMOS 2477 (745)       
1 37868U 11064B   22058.59343295  .00000007  00000+0  00000+0 0  9996
2 37868  64.6237 126.2035 0019419 237.8877 120.9160  2.13101635 80297
COSMOS 2475 (743)       
1 37869U 11064C   22057.61099992 -.00000001  00000+0  00000+0 0  9996
2 37869  64.6292 126.2454 0023484 255.9770  27.0527  2.13101820 80283
COSMOS 2485 (747)       
1 39155U 13019A   22058.29354743  .00000004  00000+0  00000+0 0  9993
2 39155  64.7801 126.5547 0022442 232.7206 122.2582  2.13101832 68802
COSMOS 2492 (754)       
1 39620U 14012A   22057.68264663 -.00000074  00000+0  00000+0 0  9995
2 39620  65.8460   6.8483 0015266 321.5899 319.3102  2.13103287 61741
COSMOS 2500 (755)       
1 40001U 14032A   22058.20299439 -.00000077  00000+0  00000+0 0  9993
2 40001  65.7852   6.7001 0005896 223.8399 315.1990  2.13102479 59975
COSMOS 2501 (702K)      
1 40315U 14075A   22057.85104698  .00000086  00000+0  00000+0 0  9999
2 40315  63.7130 245.0444 0016223 205.4783 231.0207  2.13101427 56378
COSMOS 2514 (751)       
1 41330U 16008A   22058.43243919 -.00000079  00000+0  00000+0 0  9993
2 41330  65.5857   6.4110 0010003 226.7110 311.9855  2.13102904 47144
COSMOS 2516 (753)       
1 41554U 16032A   22057.51151498  .00000091  00000+0  00000+0 0  9999
2 41554  63.9390 245.3013 0011886 211.6882 241.0493  2.13106107 44733
COSMOS 2522 (752)       
1 42939U 17055A   22058.23225992  .00000082  00000+0  00000+0 0  9994
2 42939  64.1729 245.6387 0004890 244.5834 259.6867  2.13102024 34504
COSMOS 2527 (756)       
1 43508U 18053A   22058.35505461  .00000005  00000+0  00000+0 0  9996
2 43508  64.9439 126.5301 0008706 232.2468  38.3326  2.13102613 28793
COSMOS 2529 (757)       
1 43687U 18086A   22058.56299365  .00000078  00000+0  00000+0 0  9996
2 43687  64.3867 245.9138 0007260 277.2655  76.2500  2.13102222 25816
COSMOS 2534 (758)       
1 44299U 19030A   22057.68834249  .00000090  00000+0  00000+0 0  9998
2 44299  64.4589 245.8177 0010598 298.5031 238.6431  2.13102019 21448
COSMOS 2544 (759)       
1 44850U 19088A   22058.28813847  .00000004  00000+0  00000+0 0  9997
2 44850  64.9291 126.3867 0012913 259.3253   3.4669  2.13102380 17222
COSMOS 2545 (760)       
1 45358U 20018A   22058.49007951 -.00000079  00000+0  00000+0 0  9993
2 45358  64.9221   7.1083 0010421 260.2395   7.1198  2.13102733 15188
COSMOS 2547 (705K)      
1 46805U 20075A   22058.62050100  .00000077  00000+0  00000+0 0  9990
2 46805  64.6810 245.1786 0005127 248.5319 331.0420  2.13103051 10437
